NORAD_CAT_ID,OBJECT_NAME,OBJECT_TYPE,EPOCH,MEAN_MOTION,ECCENTRICITY,INCLINATION,RA_OF_ASC_NODE,ARG_OF_PERICENTER,MEAN_ANOMALY,BSTAR,MEAN_MOTION_DOT,MEAN_MOTION_DDOT,TLE_LINE0,TLE_LINE1,TLE_LINE2,SEMIMAJOR_AXIS,PERIOD,APOGEE,PERIGEE,DECAYED
52993.0,STARLINK-4264,PAYLOAD,2023-06-16 12:37:31,15.08850653,0.0001094,53.2166,250.561,88.2653,271.8464,0.000149,2.085e-05,0.0,0 STARLINK-4264,1 52993U 22076H   23167.52605580  .00002085  00000-0  14900-3 0  9997,2 52993  53.2166 250.5610 0001094  88.2653 271.8464 15.08850653 52301,6917.848,95.437,540.47,538.956,0.0
52993.0,STARLINK-4264,PAYLOAD,2023-06-16 15:48:16,15.08874555,0.000108,53.2168,249.9659,94.4136,265.698,-5.7914e-05,-1.21e-05,0.0,0 STARLINK-4264,1 52993U 22076H   23167.65852412 -.00001210  00000-0 -57914-4 0  9993,2 52993  53.2168 249.9659 0001080  94.4136 265.6980 15.08874555 52792,6917.775,95.435,540.387,538.893,0.0
52993.0,STARLINK-4264,PAYLOAD,2023-06-16 22:09:51,15.08835399,0.0001403,53.2167,248.7749,86.4476,273.6676,6.7855e-05,7.92e-06,0.0,0 STARLINK-4264,1 52993U 22076H   23167.92350821  .00000792  00000-0  67855-4 0  9997,2 52993  53.2167 248.7749 0001403  86.4476 273.6676 15.08835399 52834,6917.894,95.438,540.73,538.789,0.0
52993.0,STARLINK-4264,PAYLOAD,2023-06-17 12:28:19,15.08835152,0.0001467,53.216,246.0991,86.2507,273.8653,3.947e-05,3.4e-06,0.0,0 STARLINK-4264,1 52993U 22076H   23168.51967175  .00000340  00000-0  39470-4 0  9990,2 52993  53.2160 246.0991 0001467  86.2507 273.8653 15.08835152 52452,6917.895,95.438,540.775,538.745,0.0
52993.0,STARLINK-4264,PAYLOAD,2023-06-17 22:00:38,15.08834886,0.0001041,53.2171,244.3171,94.6181,265.493,4.6557e-05,4.53e-06,0.0,0 STARLINK-4264,1 52993U 22076H   23168.91711353  .00000453  00000-0  46557-4 0  9998,2 52993  53.2171 244.3171 0001041  94.6181 265.4930 15.08834886 52519,6917.896,95.438,540.481,539.041,0.0
52993.0,STARLINK-4264,PAYLOAD,2023-06-18 10:43:43,15.08842408,0.000107,53.2162,241.9388,97.0078,263.1036,-3.2429e-05,-8.04e-06,0.0,0 STARLINK-4264,1 52993U 22076H   23169.44702652 -.00000804  00000-0 -32429-4 0  9994,2 52993  53.2162 241.9388 0001070  97.0078 263.1036 15.08842408 53068,6917.873,95.437,540.478,538.998,0.0
52993.0,STARLINK-4264,PAYLOAD,2023-06-19 04:12:58,15.08836744,0.0001033,53.2156,238.6675,84.2884,275.8226,0.00011874,1.602e-05,0.0,0 STARLINK-4264,1 52993U 22076H   23170.17567189  .00001602  00000-0  11874-3 0  9995,2 52993  53.2156 238.6675 0001033  84.2884 275.8226 15.08836744 53174,6917.89,95.438,540.47,539.041,0.0
52993.0,STARLINK-4264,PAYLOAD,2023-06-20 10:25:17,15.08843271,0.0001087,53.2151,233.0179,79.9229,280.1885,0.00015959,2.253e-05,0.0,0 STARLINK-4264,1 52993U 22076H   23171.43423247  .00002253  00000-0  15959-3 0  9992,2 52993  53.2151 233.0179 0001087  79.9229 280.1885 15.08843271 53364,6917.87,95.437,540.487,538.983,0.0
52993.0,STARLINK-4264,PAYLOAD,2023-06-21 10:16:04,15.08845229,0.0001009,53.2147,228.5566,83.8998,276.2109,0.00018272,2.622e-05,0.0,0 STARLINK-4264,1 52993U 22076H   23172.42783116  .00002622  00000-0  18272-3 0  9997,2 52993  53.2147 228.5566 0001009  83.8998 276.2109 15.08845229 53044,6917.864,95.437,540.427,539.031,0.0
52993.0,STARLINK-4264,PAYLOAD,2023-06-21 22:59:09,15.08841706,0.0001007,53.2146,226.1776,83.8764,276.2343,0.00010211,1.338e-05,0.0,0 STARLINK-4264,1 52993U 22076H   23172.95775242  .00001338  00000-0  10211-3 0  9994,2 52993  53.2146 226.1776 0001007  83.8764 276.2343 15.08841706 53595,6917.875,95.437,540.437,539.044,0.0
52993.0,STARLINK-4264,PAYLOAD,2023-06-23 11:33:01,15.08842994,0.0001032,53.2157,219.3375,89.0206,271.0904,5.8114e-05,6.37e-06,0.0,0 STARLINK-4264,1 52993U 22076H   23174.48127093  .00000637  00000-0  58114-4 0  9995,2 52993  53.2157 219.3375 0001032  89.0206 271.0904 15.08842994 53825,6917.871,95.437,540.45,539.022,0.0
52993.0,STARLINK-4264,PAYLOAD,2023-06-23 22:40:44,15.08832878,0.000107,53.2162,217.2579,96.3547,263.7567,6.195e-05,6.98e-06,0.0,0 STARLINK-4264,1 52993U 22076H   23174.94495755  .00000698  00000-0  61950-4 0  9998,2 52993  53.2162 217.2579 0001070  96.3547 263.7567 15.08832878 53895,6917.902,95.438,540.507,539.027,0.0
52993.0,STARLINK-4264,PAYLOAD,2023-06-25 01:42:18,15.08837452,9.45e-05,53.2157,212.2009,90.1393,269.9707,3.732e-06,-2.28e-06,0.0,0 STARLINK-4264,1 52993U 22076H   23176.07104246 -.00000228  00000-0  37320-5 0  9991,2 52993  53.2157 212.2009 0000945  90.1393 269.9707 15.08837452 54060,6917.888,95.438,540.407,539.099,0.0
52993.0,STARLINK-4264,PAYLOAD,2023-06-26 09:30:00,15.08836917,0.0001055,53.2155,206.254,89.2794,270.8319,0.00018008,2.579e-05,0.0,0 STARLINK-4264,1 52993U 22076H   23177.39584227  .00002579  00000-0  18008-3 0  9998,2 52993  53.2155 206.2540 0001055  89.2794 270.8319 15.08836917 54265,6917.89,95.438,540.485,539.025,0.0
52993.0,STARLINK-4264,PAYLOAD,2023-06-27 18:53:06,15.08841031,0.0001087,53.2154,200.0091,84.6798,275.4318,1.9756e-05,2.7e-07,0.0,0 STARLINK-4264,1 52993U 22076H   23178.78688324  .00000027  00000-0  19756-4 0  9993,2 52993  53.2154 200.0091 0001087  84.6798 275.4318 15.08841031 54471,6917.877,95.437,540.494,538.99,0.0
52993.0,STARLINK-4264,PAYLOAD,2023-06-29 04:16:12,15.08842204,0.0001092,53.2153,193.7633,85.867,274.2447,6.391e-05,7.3e-06,0.0,0 STARLINK-4264,1 52993U 22076H   23180.17791967  .00000730  00000-0  63910-4 0  9999,2 52993  53.2153 193.7633 0001092  85.8670 274.2447 15.08842204 54684,6917.874,95.437,540.494,538.983,0.0
52993.0,STARLINK-4264,PAYLOAD,2023-07-01 05:33:09,15.08835683,0.0001214,53.2159,184.5448,85.5482,274.5649,-9.2549e-06,-4.35e-06,0.0,0 STARLINK-4264,1 52993U 22076H   23182.23136555 -.00000435  00000-0 -92549-5 0  9999,2 52993  53.2159 184.5448 0001214  85.5482 274.5649 15.08835683 54990,6917.894,95.438,540.598,538.919,0.0
52993.0,STARLINK-4264,PAYLOAD,2023-07-02 10:10:06,15.08838667,0.0001179,53.216,179.1929,86.1242,273.9884,3.3584e-05,2.47e-06,0.0,0 STARLINK-4264,1 52993U 22076H   23183.42368389  .00000247  00000-0  33584-4 0  9995,2 52993  53.2160 179.1929 0001179  86.1242 273.9884 15.08838667 55177,6917.884,95.438,540.565,538.934,0.0
52993.0,STARLINK-4264,PAYLOAD,2023-07-03 16:22:26,15.08837273,0.0001147,53.2158,173.5429,83.7672,276.3451,4.3681e-05,4.07e-06,0.0,0 STARLINK-4264,1 52993U 22076H   23184.68224717  .00000407  00000-0  43681-4 0  9997,2 52993  53.2158 173.5429 0001147  83.7672 276.3451 15.08837273 55362,6917.889,95.438,540.547,538.96,0.0
52993.0,STARLINK-4264,PAYLOAD,2023-07-04 22:34:45,15.08839194,0.0001164,53.2159,167.8928,86.8406,273.2719,4.8355e-05,4.82e-06,0.0,0 STARLINK-4264,1 52993U 22076H   23185.94080680  .00000482  00000-0  48355-4 0  9992,2 52993  53.2159 167.8928 0001164  86.8406 273.2719 15.08839194 55559,6917.883,95.438,540.553,538.943,0.0
52993.0,STARLINK-4264,PAYLOAD,2023-07-06 07:57:51,15.08842557,0.000119,53.2159,161.6477,89.4617,270.6511,5.2634e-05,5.5e-06,0.0,0 STARLINK-4264,1 52993U 22076H   23187.33184459  .00000550  00000-0  52634-4 0  9997,2 52993  53.2159 161.6477 0001190  89.4617 270.6511 15.08842557 55763,6917.873,95.437,540.561,538.914,0.0
52993.0,STARLINK-4264,PAYLOAD,2023-07-07 18:56:21,15.08823992,0.0001234,53.2159,155.1041,97.2779,262.8354,0.00017168,2.444e-05,0.0,0 STARLINK-4264,1 52993U 22076H   23188.78913359  .00002444  00000-0  17168-3 0  9992,2 52993  53.2159 155.1041 0001234  97.2779 262.8354 15.08823992 55987,6917.929,95.439,540.648,538.941,0.0
52993.0,STARLINK-4264,PAYLOAD,2023-07-08 07:39:25,15.08838025,0.0001183,53.2156,152.7273,86.9172,273.1955,3.6076e-07,-2.82e-06,0.0,0 STARLINK-4264,1 52993U 22076H   23189.31905041 -.00000282  00000-0  36076-6 0  9992,2 52993  53.2156 152.7273 0001183  86.9172 273.1955 15.08838025 56064,6917.886,95.438,540.57,538.933,0.0
52993.0,STARLINK-4264,PAYLOAD,2023-07-10 04:10:13,15.08837148,0.0001166,53.2158,144.4017,85.4928,274.6198,9.9287e-05,1.293e-05,0.0,0 STARLINK-4264,1 52993U 22076H   23191.17377286  .00001293  00000-0  99287-4 0  9996,2 52993  53.2158 144.4017 0001166  85.4928 274.6198 15.08837148 56345,6917.889,95.438,540.561,538.947,0.0
52993.0,STARLINK-4264,PAYLOAD,2023-07-11 07:11:47,15.08838166,0.0001277,53.2166,139.3472,91.5525,268.5614,3.43e-05,2.58e-06,0.0,0 STARLINK-4264,1 52993U 22076H   23192.29985770  .00000258  00000-0  34300-4 0  9998,2 52993  53.2166 139.3472 0001277  91.5525 268.5614 15.08838166 56511,6917.886,95.438,540.634,538.868,0.0
52993.0,STARLINK-4264,PAYLOAD,2023-07-12 05:27:10,15.08851492,0.0001307,53.2168,135.1837,92.9941,267.12,0.00011635,1.565e-05,0.0,0 STARLINK-4264,1 52993U 22076H   23193.22720637  .00001565  00000-0  11635-3 0  9998,2 52993  53.2168 135.1837 0001307  92.9941 267.1200 15.08851492 56651,6917.845,95.437,540.614,538.806,0.0
52993.0,STARLINK-4264,PAYLOAD,2023-07-12 13:24:07,15.08838363,0.0001483,53.2169,133.6971,81.7948,278.3212,2.0351e-06,-2.56e-06,0.0,0 STARLINK-4264,1 52993U 22076H   23193.55841882 -.00000256  00000-0  20351-5 0  9994,2 52993  53.2169 133.6971 0001483  81.7948 278.3212 15.08838363 56707,6917.885,95.438,540.776,538.724,0.0
52993.0,STARLINK-4264,PAYLOAD,2023-07-14 05:08:45,15.08833977,9.91e-05,53.2176,126.259,84.6521,275.4584,0.00023323,3.425e-05,0.0,0 STARLINK-4264,1 52993U 22076H   23195.21441611  .00003425  00000-0  23323-3 0  9995,2 52993  53.2176 126.2590 0000991  84.6521 275.4584 15.08833977 56955,6917.899,95.438,540.449,539.078,0.0
52993.0,STARLINK-4264,PAYLOAD,2023-07-16 04:50:20,15.0883581,0.0001263,53.2173,117.3404,87.5083,272.6053,-4.8709e-05,-1.063e-05,0.0,0 STARLINK-4264,1 52993U 22076H   23197.20162363 -.00001063  00000-0 -48709-4 0  9994,2 52993  53.2173 117.3404 0001263  87.5083 272.6053 15.08835810 57257,6917.893,95.438,540.632,538.884,0.0
52993.0,STARLINK-4264,PAYLOAD,2023-07-16 19:08:48,15.08858988,0.000115,53.2174,114.664,102.6449,257.4672,-0.00031559,-5.31e-05,0.0,0 STARLINK-4264,1 52993U 22076H   23197.79778285 -.00005310  00000-0 -31559-3 0  9997,2 52993  53.2174 114.6640 0001150 102.6449 257.4672 15.08858988 57349,6917.822,95.436,540.483,538.892,0.0
